QIANFAN-17              
1 60395U 24140S   25228.74855566  .00000115  00000+0  15949-3 0  9996
2 60395  88.9847 311.6250 0015436 178.8322 181.2868 13.50964369 51351
QIANFAN-18              
1 60396U 24140T   25228.72808606  .00000103  00000+0  14095-3 0  9996
2 60396  88.9839 311.1698 0015376 162.2201 197.9491 13.50966180 51584
QIANFAN-19              
1 61552U 24185A   25228.63467998  .00000322  00000+0  16193-3 0  9999
2 61552  88.9785  91.4941 0006371 343.1996  16.8979 14.14125636 52972
QIANFAN-20              
1 61553U 24185B   25228.63680311  .00000372  00000+0  20809-3 0  9990
2 61553  88.9783  91.6985 0006850  20.3094 339.8360 14.08676757 52864
QIANFAN-21              
1 61554U 24185C   25228.57198866  .00000464  00000+0  20212-3 0  9993
2 61554  88.9699  90.8396 0012246  36.8538 323.3493 14.22377210 53177
QIANFAN-22              
1 61555U 24185D   25228.63048908  .00000173  00000+0  13864-3 0  9994
2 61555  88.9770  92.2050 0007275  13.0236 347.1122 13.86242324 52571
QIANFAN-23              
1 61556U 24185E   25228.63455003  .00000425  00000+0  20817-3 0  9999
2 61556  88.9777  91.3584 0007675 354.0024   6.1071 14.16098535 53032
QIANFAN-24              
1 61557U 24185F   25228.60421056  .00000435  00000+0  18474-3 0  9995
2 61557  88.9758  90.9604 0008737 337.8433  22.2380 14.23577384 53217
